CAMPUSID,CAMPUSNAME,PROVIDERID,ProviderName,ADDRESSSTREET,ADDRESSSTATE,StateId,ADDRESSCITY,CityId,ADDRESSPOSTCODE,CAMPUSNEARESTCITY,CountryCode,ADDRESSCOUNTRYCODE,ONCAMPUSACCOMMODATION,URLCAMPUSINFO,CAMPUSNOTE,ADDRESSGEOCODE,PROVIDERCRICOSCODE
SN_L_0001,Mount Gravatt Campus,SN_P_0025,Griffith College,"Level 5, International Building M14, 176 Messines Ridge Road",Queensland,,Mount Gravatt,,4122,Brisbane,,Australia,YES,https://www.griffithcollege.edu.au/contact/,"Located on the edge of Toohey Forest with panoramic views of Brisbane, Mount Gravatt campus is the original site of Griffith College, opened in 1997. Adjacent to Griffith Nathan campus with panoramic views of Brisbane, Mount Gravatt has more than 4,000 students and offers degrees in criminology and criminal justice, education and psychology.","-27.541269, 153.062744",01737F
SN_L_0002,Footscray Nicholson Campus,SN_P_0011,Victoria University,Corner of Nicholson and Buckley Streets,Victoria,,Footscray,,3011,Melbourne,,Australia,YES,https://www.vu.edu.au/campuses/footscray-nicholson,"Footscray Nicholson Campus is a few minutes' walk from the Footscray train station.

This relaxed and friendly campus has an emphasis on TAFE courses, run through VU Polytechnic.

It's easy to find your way around - there is a brand new learning commons with a library and study spaces.","-37.8026694, 144.8883848",00124K
SN_L_0003,Footscray Park Campus,SN_P_0011,Victoria University,70-104 Ballarat Road,Victoria,,Footscray,,3011,Melbourne,,Australia,YES,https://www.vu.edu.au/campuses/footscray-nicholson,"Footscray Nicholson Campus is a few minutes' walk from the Footscray train station.

This relaxed and friendly campus has an emphasis on TAFE courses, run through VU Polytechnic.

It's easy to find your way around - there is a brand new learning commons with a library and study spaces.","-37.793751, 144.898590",00124K
SN_L_0004,St Albans Campus,SN_P_0011,Victoria University,McKechnie Street,Victoria,,St Albans,,3021,Melbourne,,Australia,YES,https://www.vu.edu.au/campuses/footscray-nicholson,"Footscray Nicholson Campus is a few minutes' walk from the Footscray train station.

This relaxed and friendly campus has an emphasis on TAFE courses, run through VU Polytechnic.

It's easy to find your way around - there is a brand new learning commons with a library and study spaces.","-37.7442458, 144.7990287",00124K
SN_L_0005,Werribee Campus,SN_P_0011,Victoria University,235 Hoppers Lane,Victoria,,Werribee,,3030,Melbourne,,Australia,YES,https://www.vu.edu.au/campuses/footscray-nicholson,"Footscray Nicholson Campus is a few minutes' walk from the Footscray train station.

This relaxed and friendly campus has an emphasis on TAFE courses, run through VU Polytechnic.

It's easy to find your way around - there is a brand new learning commons with a library and study spaces.","-37.8914116, 144.7008623",00124K
SN_L_0006,Bedford Park,SN_P_0007,Flinders University,Sturt Road,South Australia,,Bedford Park,,5042,Adelaide,,Australia,YES,https://www.flinders.edu.au/campus/bedford-park,"Located just 12km south of the centre of Adelaide, the Bedford Park campus is Flinders' main campus. It's a spacious, elevated site with panoramic views to the coast and over the city. Our Student Hub offers 24/7 study spaces and access to all student services in one convenient location.","-35.0163714, 138.5750733",00114A
SN_L_0007,SIBT Sydney campus,SN_P_0024,Sydney Institute of Business and Technology (SIBT),"Level 4, 255 Elizabeth Street",New South Wales,,Sydney,,2000,Sydney,,Australia,NO,https://www.sibt.nsw.edu.au/sibt-sydney-campus,"SIBT Sydney campus offers the convenience of being located in the heart of Sydney's central business district. It's located directly across from Hyde Park and just minutes from shopping centres, services, cafe's, and more. Plus, you're within walking distance of iconic destinations like the Sydney Opera House and Harbour Bridge, as well as all modes of transport, meaning you have easy and full access to all the best our city has to offer.

International airports near Sydney, Australia:
11 km: Sydney, Australia (SYD / YSSY) Sydney Kingsford Smith Airport.","-33.8757242, 151.209197",01576G
SN_L_0008,Perth campus,SN_P_0012,Murdoch University,90 South Street,Western Australia,,Murdoch,,6150,Perth,,Australia,YES,https://www.murdoch.edu.au/life-at-murdoch/perth-campus,"Our Perth campus is set in a beautiful bush environment and covers over 227 hectares, making it one of the largest campuses in Australia. Perth campus is located on South Street in Murdoch, close to the Kwinana Freeway and Fiona Stanley Hospital.","-32.064110, 115.829971",00125J
SN_L_0009,Mandurah campus,SN_P_0012,Murdoch University,Education Drive,Western Australia,,Mandurah,,6210,Perth,,Australia,YES,https://www.murdoch.edu.au/life-at-murdoch/perth-campus,"Our Perth campus is set in a beautiful bush environment and covers over 227 hectares, making it one of the largest campuses in Australia. Perth campus is located on South Street in Murdoch, close to the Kwinana Freeway and Fiona Stanley Hospital.","-32.515491, 115.755219",00125J
SN_L_0010,Eynesbury Franklin Street,SN_P_0018,Eynesbury College,15-19 Franklin Street,South Australia,,Adelaide,,5000,Adelaide,,Australia,YES,https://www.eynesbury.edu.au/about/campus,"Eynesbury has two campuses, both located in the center of Adelaide city, near the Chinatown and Central Market precinct. while our Franklin Street campus is for our Senior High School.","-34.927589, 138.598404",00561M
SN_L_0011,Lismore Campus,SN_P_0022,Southern Cross University,Military Road,New South Wales,,East Lismore,,2480,Gold Coast,,Australia,YES,https://www.scu.edu.au/study-at-scu/why-scu/locations/lismore/,"Southern Cross University's Lismore campus occupies 75 hectares of lush, sub-tropical grounds including landscaped gardens and rainforest walkways that are home to a variety of native wildlife.

International airports near East Lismore, Australia
101 km: Gold Coast, Australia (OOL / YBCG) Gold Coast Airport
208 km: Brisbane, Australia (BNE / YBBN) Brisbane Airport","-28.8202269, 153.2993641",01241G
SN_L_0012,Coffs Harbour Campus,SN_P_0022,Southern Cross University,Hogbin Drive,New South Wales,,Coffs Harbour,,2450,Gold Coast,,Australia,YES,https://www.scu.edu.au/study-at-scu/why-scu/locations/lismore/,"Southern Cross University's Lismore campus occupies 75 hectares of lush, sub-tropical grounds including landscaped gardens and rainforest walkways that are home to a variety of native wildlife.

International airports near East Lismore, Australia
101 km: Gold Coast, Australia (OOL / YBCG) Gold Coast Airport
208 km: Brisbane, Australia (BNE / YBBN) Brisbane Airport","-30.3043034, 153.1229072",01241G
SN_L_0013,Gold Coast Campus,SN_P_0022,Southern Cross University,Southern Cross Drive,Queensland,,Bilinga,,4225,Gold Coast,,Australia,YES,https://www.scu.edu.au/study-at-scu/why-scu/locations/lismore/,"Southern Cross University's Lismore campus occupies 75 hectares of lush, sub-tropical grounds including landscaped gardens and rainforest walkways that are home to a variety of native wildlife.

International airports near East Lismore, Australia
101 km: Gold Coast, Australia (OOL / YBCG) Gold Coast Airport
208 km: Brisbane, Australia (BNE / YBBN) Brisbane Airport","-28.16667, 153.51667",01241G
SN_L_0014,Callaghan Campus,SN_P_0005,"The University of Newcastle, Australia",University Drive,New South Wales,,Callaghan,,2308,Sydney,,Australia,YES,https://www.newcastle.edu.au/campus-life/newcastle/callaghan,"The original campus for The University of Newcastle, Australia, Callaghan is a beautiful mix of award-winning, architecturally designed buildings sitting across 140 hectares in a natural setting. Our relaxed campus environment allows you to study free from distraction.

We are equipping our campus with infrastructure that will meet the needs of our students, staff and researchers well into the future. Our ongoing investment in state-of-the-art buildings and facilities will attract the best and brightest students, researchers, academic and professional staff. A campus-wide, fibre-optic network provides excellent access to specialist and public online service.","-32.8966288, 151.7024382",00109J
SN_L_0015,Central Coast - Ourimbah Campus ,SN_P_0005,"The University of Newcastle, Australia","Q-10, Loop Rd and The Boulevarde",New South Wales,,Ourimbah,,2258,Sydney,,Australia,YES,https://www.newcastle.edu.au/campus-life/newcastle/callaghan,"The original campus for The University of Newcastle, Australia, Callaghan is a beautiful mix of award-winning, architecturally designed buildings sitting across 140 hectares in a natural setting. Our relaxed campus environment allows you to study free from distraction.

We are equipping our campus with infrastructure that will meet the needs of our students, staff and researchers well into the future. Our ongoing investment in state-of-the-art buildings and facilities will attract the best and brightest students, researchers, academic and professional staff. A campus-wide, fibre-optic network provides excellent access to specialist and public online service.","-35.3147078, 149.1330439",00109J
SN_L_0016,Newcastle City Precinct,SN_P_0005,"The University of Newcastle, Australia",Auckland Street and King Street,New South Wales,,Newcastle,,2300,Sydney,,Australia,YES,https://www.newcastle.edu.au/campus-life/newcastle/callaghan,"The original campus for The University of Newcastle, Australia, Callaghan is a beautiful mix of award-winning, architecturally designed buildings sitting across 140 hectares in a natural setting. Our relaxed campus environment allows you to study free from distraction.

We are equipping our campus with infrastructure that will meet the needs of our students, staff and researchers well into the future. Our ongoing investment in state-of-the-art buildings and facilities will attract the best and brightest students, researchers, academic and professional staff. A campus-wide, fibre-optic network provides excellent access to specialist and public online service.","-32.9290393, 151.7707186",00109J
SN_L_0017,Albury-Wodonga ,SN_P_0002,Charles Sturt University,"386 Elizabeth Mitchell Drive, Thurgoona",New South Wales,,Thurgoona,,2640,Melbourne,,Australia,YES,https://about.csu.edu.au/locations/campuses/albury-wodonga,"CSU's Albury-Wodonga Campus was designed with sustainability in mind. Its buildings feature many environmentally sensitive features to minimise the use of heating and cooling. Ecologically significant wetlands and a huge variety of native flora and fauna can also be seen on the campus. A small and friendly campus environment means you will meet other students from a range of courses and feel part of a close-knit community.

International airports near Albury, Australia:
304 km: Melbourne, Australia (MEL / YMML) Melbourne Airport.","-36.0657019, 146.9755163",00005F
SN_L_0018,Bathurst,SN_P_0002,Charles Sturt University,Panorama Avenue,New South Wales,,Bathurst,,2795,Sydney,,Australia,YES,https://about.csu.edu.au/locations/campuses/albury-wodonga,"CSU's Albury-Wodonga Campus was designed with sustainability in mind. Its buildings feature many environmentally sensitive features to minimise the use of heating and cooling. Ecologically significant wetlands and a huge variety of native flora and fauna can also be seen on the campus. A small and friendly campus environment means you will meet other students from a range of courses and feel part of a close-knit community.

International airports near Albury, Australia:
304 km: Melbourne, Australia (MEL / YMML) Melbourne Airport.","-33.4280978, 149.5672052",00005F
SN_L_0019,Canberra,SN_P_0002,Charles Sturt University,15 Blackall Street,Australian Capital Territory,,Barton,,2601,Sydney,,Australia,YES,https://about.csu.edu.au/locations/campuses/albury-wodonga,"CSU's Albury-Wodonga Campus was designed with sustainability in mind. Its buildings feature many environmentally sensitive features to minimise the use of heating and cooling. Ecologically significant wetlands and a huge variety of native flora and fauna can also be seen on the campus. A small and friendly campus environment means you will meet other students from a range of courses and feel part of a close-knit community.

International airports near Albury, Australia:
304 km: Melbourne, Australia (MEL / YMML) Melbourne Airport.","-35.305280, 149.137430",00005F
SN_L_0020,Dubbo,SN_P_0002,Charles Sturt University,Tony McGrane Place,New South Wales,,Dubbo,,2830,Sydney,,Australia,YES,https://about.csu.edu.au/locations/campuses/albury-wodonga,"CSU's Albury-Wodonga Campus was designed with sustainability in mind. Its buildings feature many environmentally sensitive features to minimise the use of heating and cooling. Ecologically significant wetlands and a huge variety of native flora and fauna can also be seen on the campus. A small and friendly campus environment means you will meet other students from a range of courses and feel part of a close-knit community.

International airports near Albury, Australia:
304 km: Melbourne, Australia (MEL / YMML) Melbourne Airport.","-32.2362131, 148.6292874",00005F
SN_L_0021,Orange,SN_P_0002,Charles Sturt University,346 Leeds Parade,New South Wales,,Orange,,2800,Sydney,,Australia,YES,https://about.csu.edu.au/locations/campuses/albury-wodonga,"CSU's Albury-Wodonga Campus was designed with sustainability in mind. Its buildings feature many environmentally sensitive features to minimise the use of heating and cooling. Ecologically significant wetlands and a huge variety of native flora and fauna can also be seen on the campus. A small and friendly campus environment means you will meet other students from a range of courses and feel part of a close-knit community.

International airports near Albury, Australia:
304 km: Melbourne, Australia (MEL / YMML) Melbourne Airport.","-33.2765796, 149.1072393",00005F
SN_L_0022,"United Theological College, Parramatta",SN_P_0002,Charles Sturt University,16 Masons Drive,New South Wales,,North Parramatta,,2151,Sydney,,Australia,YES,https://about.csu.edu.au/locations/campuses/albury-wodonga,"CSU's Albury-Wodonga Campus was designed with sustainability in mind. Its buildings feature many environmentally sensitive features to minimise the use of heating and cooling. Ecologically significant wetlands and a huge variety of native flora and fauna can also be seen on the campus. A small and friendly campus environment means you will meet other students from a range of courses and feel part of a close-knit community.

International airports near Albury, Australia:
304 km: Melbourne, Australia (MEL / YMML) Melbourne Airport.","-33.7910773, 151.0167006",00005F
SN_L_0023,Wagga Wagga ,SN_P_0002,Charles Sturt University,Boorooma Street,New South Wales,,North Wagga,,2678,Melbourne,,Australia,YES,https://about.csu.edu.au/locations/campuses/albury-wodonga,"CSU's Albury-Wodonga Campus was designed with sustainability in mind. Its buildings feature many environmentally sensitive features to minimise the use of heating and cooling. Ecologically significant wetlands and a huge variety of native flora and fauna can also be seen on the campus. A small and friendly campus environment means you will meet other students from a range of courses and feel part of a close-knit community.

International airports near Albury, Australia:
304 km: Melbourne, Australia (MEL / YMML) Melbourne Airport.","-35.0656615, 147.3597963",00005F
SN_L_0024,Townsville,,James Cook University,1 James Cook Drive Douglas,Queensland,,Townsville,,4811,Cairns,,Australia,YES,https://www.jcu.edu.au/about-jcu/campuses/townsville,"JCU Townsville houses teaching and research facilities, the main JCU library, cafes, bars, fitness and sporting facilities and a wealth of student clubs and societies.","-19.326380, 146.757095",00117J
SN_L_0025,Cairns,,James Cook University,"14-88 McGregor Road Smithfield,",Queensland,,Cairns,,4878,Cairns,,Australia,YES,https://www.jcu.edu.au/about-jcu/campuses/townsville,"JCU Townsville houses teaching and research facilities, the main JCU library, cafes, bars, fitness and sporting facilities and a wealth of student clubs and societies.","-16.823570, 145.705990",00117J
SN_L_0026,Melbourne,SN_P_0023,Australian College of Applied Professions (ACAP),123 Lonsdale Street,Victoria,,Melbourne,,3000,Melbourne,,Australia,NO,https://www.acap.edu.au/campuses/melbourne/,"ACAP's Melbourne campus is conveniently located on Lonsdale street in the heart of the Melbourne CBD (Central Business District), located near Chinatown and just a 5 minute walk to Melbourne's Greek precinct and close to shops, cafes and restaurants. ACAP's Melbourne campus is also easy to access via public transport.","-37.810640, 144.968630",01328A
SN_L_0027,Sydney,SN_P_0023,Australian College of Applied Professions (ACAP),255 Elizabeth Street,New South Wales,,Sydney,,2000,Sydney,,Australia,NO,https://www.acap.edu.au/campuses/melbourne/,"ACAP's Melbourne campus is conveniently located on Lonsdale street in the heart of the Melbourne CBD (Central Business District), located near Chinatown and just a 5 minute walk to Melbourne's Greek precinct and close to shops, cafes and restaurants. ACAP's Melbourne campus is also easy to access via public transport.","-33.875710, 151.209200",01328A
SN_L_0028,Brisbane,SN_P_0023,Australian College of Applied Professions (ACAP),"East Tower, 410 Ann Street",Queensland,,Brisbane,,4000,Brisbane,,Australia,NO,https://www.acap.edu.au/campuses/melbourne/,"ACAP's Melbourne campus is conveniently located on Lonsdale street in the heart of the Melbourne CBD (Central Business District), located near Chinatown and just a 5 minute walk to Melbourne's Greek precinct and close to shops, cafes and restaurants. ACAP's Melbourne campus is also easy to access via public transport.","-27.463490, 153.028990",01328A
SN_L_0029,Curtin Bentley Campus,SN_P_0026,Curtin College,"Building 205, Kent Street",Western Australia,,Bentley,,6102,Perth,,Australia,YES,https://www.curtincollege.edu.au/about-curtin-college/contact/,"Curtin College is located in the heart of the Curtin University campus, Building 205. The campus is just six kilometres from the centre of Perth and is easily accessible by public transport.

International airports near Perth, Australia:
21 km: Perth, Australia (PER / YPPH) Perth Airport.","-32.001820, 115.887500",02042G
SN_L_0030,Melbourne (City),SN_P_0008,La Trobe University,360 Collins Street,Victoria,,Melbourne,,3000,Melbourne,,Australia,YES,https://www.latrobe.edu.au/city,"Located in the heart of Melbourne's central business district, the Campus gives you easy access to work and internship opportunities, cultural events, restaurants, bars and shopping.

Our campus offers postgraduate courses in business, health or law.

Access our facilities, including modern learning spaces and meeting rooms catering for a wide range of events, conferences, meetings and conventions.","-37.8165167, 144.9622936",00115M
SN_L_0031,Albury-Wodonga ,SN_P_0008,La Trobe University,"University Drive, Wodong",Victoria,,Melbourne,,3689,Melbourne,,Australia,YES,https://www.latrobe.edu.au/city,"Located in the heart of Melbourne's central business district, the Campus gives you easy access to work and internship opportunities, cultural events, restaurants, bars and shopping.

Our campus offers postgraduate courses in business, health or law.

Access our facilities, including modern learning spaces and meeting rooms catering for a wide range of events, conferences, meetings and conventions.","-36.112120, 146.849240",00115M
SN_L_0032,Bendigo Campus,SN_P_0008,La Trobe University,"Edwards Road, Flora Hill",Victoria,,Melbourne,,3552,Melbourne,,Australia,YES,https://www.latrobe.edu.au/city,"Located in the heart of Melbourne's central business district, the Campus gives you easy access to work and internship opportunities, cultural events, restaurants, bars and shopping.

Our campus offers postgraduate courses in business, health or law.

Access our facilities, including modern learning spaces and meeting rooms catering for a wide range of events, conferences, meetings and conventions.","-36.7582, 144.2802",00115M
SN_L_0033,Mildura Campus,SN_P_0008,La Trobe University,471 Benetook Avenue,Victoria,,Melbourne,,3500,Melbourne,,Australia,YES,https://www.latrobe.edu.au/city,"Located in the heart of Melbourne's central business district, the Campus gives you easy access to work and internship opportunities, cultural events, restaurants, bars and shopping.

Our campus offers postgraduate courses in business, health or law.

Access our facilities, including modern learning spaces and meeting rooms catering for a wide range of events, conferences, meetings and conventions.","-34.2677562, 142.0924203",00115M
SN_L_0034,Shepparton Campus,SN_P_0008,La Trobe University,210 Fryers Street,Victoria,,Melbourne,,3630,Melbourne,,Australia,YES,https://www.latrobe.edu.au/city,"Located in the heart of Melbourne's central business district, the Campus gives you easy access to work and internship opportunities, cultural events, restaurants, bars and shopping.

Our campus offers postgraduate courses in business, health or law.

Access our facilities, including modern learning spaces and meeting rooms catering for a wide range of events, conferences, meetings and conventions.","-36.4681, 145.586",00115M
SN_L_0035,Bankstown,SN_P_0021,Western Sydney University,Corner of Horsley Road and Bullecourt Avenue,New South Wales,,Sydney,,2214,Sydney,,Australia,YES,https://www.westernsydney.edu.au/future/our-campuses/bankstown-campus,"Our Bankstown campus offers you state-of-the-art computer labs and study areas, great cafes and on-campus activities, plus a full range of student services.","-33.865143, 151.209900",00917K
SN_L_0036,Campbelltown,SN_P_0021,Western Sydney University,Corner of Narellan Road and Gilchrist Drive,New South Wales,,Sydney,,2560,Sydney,,Australia,YES,https://www.westernsydney.edu.au/future/our-campuses/bankstown-campus,"Our Bankstown campus offers you state-of-the-art computer labs and study areas, great cafes and on-campus activities, plus a full range of student services.","-34.0636914, 150.8206159",00917K
SN_L_0037,Hawkesbury,SN_P_0021,Western Sydney University,"Bourke St, Richmond",New South Wales,,Richmond,,2753,Sydney,,Australia,YES,https://www.westernsydney.edu.au/future/our-campuses/bankstown-campus,"Our Bankstown campus offers you state-of-the-art computer labs and study areas, great cafes and on-campus activities, plus a full range of student services.","-33.6015073, 150.7587999",00917K
SN_L_0038,Parramatta South,SN_P_0021,Western Sydney University,"Victoria Road, Rydalmere, Parramatta",New South Wales,,Sydney,,2116,Sydney,,Australia,YES,https://www.westernsydney.edu.au/future/our-campuses/bankstown-campus,"Our Bankstown campus offers you state-of-the-art computer labs and study areas, great cafes and on-campus activities, plus a full range of student services.","-33.8126542, 151.0437702",00917K
SN_L_0039,Melbourne Campus (Bundoora),SN_P_0008,La Trobe University,Plenty Road,Victoria,,Melbourne,,3086,Melbourne,,Australia,YES,https://www.latrobe.edu.au/city,"Located in the heart of Melbourne's central business district, the Campus gives you easy access to work and internship opportunities, cultural events, restaurants, bars and shopping.

Our campus offers postgraduate courses in business, health or law.

Access our facilities, including modern learning spaces and meeting rooms catering for a wide range of events, conferences, meetings and conventions.","-37.7173, 145.0826",00115M
SN_L_0040,Wollongong Campus,SN_P_0003,"University of Wollongong, Australia",Northfields Avenue,New South Wales,,Wollongong,,2522,Sydney,,Australia,YES,https://www.uow.edu.au/about/locations/wollongong/,UOW's main Wollongong campus is set in native Australian bush and is one of the most picturesque university campuses in Australia.,"-34.4076534, 150.8749909",00102E
SN_L_0041,Geelong Waurn Ponds Campus,SN_P_0006,Deakin University,75 Pigdons Road,Victoria,,Waurn Ponds,,3216,Melbourne,,Australia,YES,https://www.deakin.edu.au/locations/geelong-waurn-ponds-campus,"Established in a rural setting, with surf beaches and the famous Twelve Apostles at its doorstep, our Geelong Waurn Ponds Campus is loved by students and nature-enthusiasts alike. Juxtapositioned with some of the most advanced research facilities in the world, it's a truly unique and inspiring campus.

On first appearance, our Geelong Waurn Ponds Campus is a vast, lush green space dotted with curiously futuristic buildings. Look closer and you'll find a friendly community of students and staff who shape the vibrant, inclusive and stimulating learning environment.","-38.195801, 144.304642",00113B
SN_L_0042,Melbourne Burwood Campus,SN_P_0006,Deakin University,221 Burwood Highway,Victoria,,Burwood,,3125,Melbourne,,Australia,YES,https://www.deakin.edu.au/locations/geelong-waurn-ponds-campus,"Established in a rural setting, with surf beaches and the famous Twelve Apostles at its doorstep, our Geelong Waurn Ponds Campus is loved by students and nature-enthusiasts alike. Juxtapositioned with some of the most advanced research facilities in the world, it's a truly unique and inspiring campus.

On first appearance, our Geelong Waurn Ponds Campus is a vast, lush green space dotted with curiously futuristic buildings. Look closer and you'll find a friendly community of students and staff who shape the vibrant, inclusive and stimulating learning environment.","-37.849689, 145.114517",00113B
SN_L_0043,Geelong Waterfront Campus,SN_P_0006,Deakin University,1 Gheringhap Street,Victoria,,Geelong,,3220,Melbourne,,Australia,YES,https://www.deakin.edu.au/locations/geelong-waurn-ponds-campus,"Established in a rural setting, with surf beaches and the famous Twelve Apostles at its doorstep, our Geelong Waurn Ponds Campus is loved by students and nature-enthusiasts alike. Juxtapositioned with some of the most advanced research facilities in the world, it's a truly unique and inspiring campus.

On first appearance, our Geelong Waurn Ponds Campus is a vast, lush green space dotted with curiously futuristic buildings. Look closer and you'll find a friendly community of students and staff who shape the vibrant, inclusive and stimulating learning environment.","-38.143300, 144.360390",00113B
SN_L_0044,Warrnambool Campus,SN_P_0006,Deakin University,Princes Highway,Victoria,,Warrnambool,,3280,Melbourne,,Australia,YES,https://www.deakin.edu.au/locations/geelong-waurn-ponds-campus,"Established in a rural setting, with surf beaches and the famous Twelve Apostles at its doorstep, our Geelong Waurn Ponds Campus is loved by students and nature-enthusiasts alike. Juxtapositioned with some of the most advanced research facilities in the world, it's a truly unique and inspiring campus.

On first appearance, our Geelong Waurn Ponds Campus is a vast, lush green space dotted with curiously futuristic buildings. Look closer and you'll find a friendly community of students and staff who shape the vibrant, inclusive and stimulating learning environment.","-38.385189, 142.535461",00113B
SN_L_0045,Perth Campus,SN_P_0013,The University of Western Australia (UWA),35 Stirling Highway,Western Australia,,Perth,,6009,Perth,,Australia,YES,https://www.uwa.edu.au/study/why-choose-uwa/campuses,"On the banks of the Swan River, just minutes from the city of Perth, sits our main campus. With additional facilities in Claremont and Nedlands, it's home to more than 22,000 students and 3500 staff.

Featuring cafes, libraries, sporting facilities, galleries, shops and many other dedicated student amenities, the Perth campus is more like a small town.

Open courtyards and expansive green spaces make studying, catching up with friends and relaxing outdoors an invigorating experience.

We provide an ideal learning environment, with modern teaching and research facilities, lecture and performance theatres, tutorial spaces, studios and laboratories.","-31.9504045, 115.7979004",00126G
SN_L_0046,UWA Albany,SN_P_0013,The University of Western Australia (UWA),35 Stirling Terrace,Western Australia,,Albany,,6332,Perth,,Australia,YES,https://www.uwa.edu.au/study/why-choose-uwa/campuses,"On the banks of the Swan River, just minutes from the city of Perth, sits our main campus. With additional facilities in Claremont and Nedlands, it's home to more than 22,000 students and 3500 staff.

Featuring cafes, libraries, sporting facilities, galleries, shops and many other dedicated student amenities, the Perth campus is more like a small town.

Open courtyards and expansive green spaces make studying, catching up with friends and relaxing outdoors an invigorating experience.

We provide an ideal learning environment, with modern teaching and research facilities, lecture and performance theatres, tutorial spaces, studios and laboratories.","-31.9504045, 116.4746106",00126G
SN_L_0047,Sydney CBD Campus,SN_P_0003,"University of Wollongong, Australia","1 Macquarie Place, Circular Quay",New South Wales,,Sydney,,2000,Sydney,,Australia,YES,https://www.uow.edu.au/about/locations/wollongong/,UOW's main Wollongong campus is set in native Australian bush and is one of the most picturesque university campuses in Australia.,"-33.8620139, 151.2098804",00102E
SN_L_0048,Wollongong Innovation Campus,SN_P_0003,"University of Wollongong, Australia",Squires Way,New South Wales,,North Wollongong,,2500,Sydney,,Australia,YES,https://www.uow.edu.au/about/locations/wollongong/,UOW's main Wollongong campus is set in native Australian bush and is one of the most picturesque university campuses in Australia.,"-34.3992536, 150.9008938",00102E
SN_L_0049,North Terrace,SN_P_0010,The University of Adelaide,North Terrace,South Australia,,Adelaide,,5000,Adelaide,,Australia,YES,https://www.adelaide.edu.au/campuses/north-terrace/,"Located in the heart of Adelaide, the main campus at North Terrace forms part of the city's cultural promenade surrounded by the state's art gallery, museum and library.

The campus provides a mix of the historical and contemporary, combining old sandstone buildings with state-of-the-art teaching, learning and research facilities.

North Terrace is the main location for undergraduate teaching and a vast range of research activities.","-34.9215705, 138.5978484",00123M
SN_L_0050,Roseworthy Campus,SN_P_0010,The University of Adelaide,Mudla Wirra Road,South Australia,,Adelaide,,5371,Adelaide,,Australia,YES,https://www.adelaide.edu.au/campuses/north-terrace/,"Located in the heart of Adelaide, the main campus at North Terrace forms part of the city's cultural promenade surrounded by the state's art gallery, museum and library.

The campus provides a mix of the historical and contemporary, combining old sandstone buildings with state-of-the-art teaching, learning and research facilities.

North Terrace is the main location for undergraduate teaching and a vast range of research activities.","-34.4137702, 138.6802246",00123M
SN_L_0051,Waite Campus,SN_P_0010,The University of Adelaide,Urrbrae,South Australia,,Adelaide,,5064,Adelaide,,Australia,YES,https://www.adelaide.edu.au/campuses/north-terrace/,"Located in the heart of Adelaide, the main campus at North Terrace forms part of the city's cultural promenade surrounded by the state's art gallery, museum and library.

The campus provides a mix of the historical and contemporary, combining old sandstone buildings with state-of-the-art teaching, learning and research facilities.

North Terrace is the main location for undergraduate teaching and a vast range of research activities.","-34.9681485, 138.638607",00123M
SN_L_0052,Navitas English Perth,SN_P_0015,Navitas English Services Pty Ltd,211 Newcastle Street,Western Australia,,Northbridge,,6003,Perth,,Australia,NO,https://www.navitasenglish.edu.au/schools/learn-english-in-perth/,"Our Perth English language school is located in the lively multicultural suburb of Northbridge, less than 1 kilometre from the city centre. Perth has an average of 8 hours of sunshine a day, 365 days a year. You can explore the area after class, or relax on one of Perth's beautiful beaches.

Perth is the most remote capital city in the world, but it's also the fastest growing. There are great job opportunities in this friendly, relaxed city.

International airports near Perth, Australia:
21 km: Perth, Australia (PER / YPPH) Perth Airport.","-31.944923, 115.8581013",00289M
SN_L_0053,Adelaide Campus,SN_P_0028,Kaplan Business School Australia,"Level 1, 68 Grenfell St",South Australia,,Adelaide,,5000,Adelaide,,Australia,NO,https://www.kbs.edu.au/about-us/campus-locations/adelaide-campus,"The KBS Adelaide Campus is situated right in the heart of the city, minutes away from the main shopping district, Rundle Mall, which is filled with popular stores, eateries and vibrant nightspots. The abundance of open park lands, its proximity to various wine regions, the happy locals and the short 20-minute drive to the beach make Adelaide a truly unique study destination.","-34.923920, 138.602200",02426B
SN_L_0054,Sydney Campus,SN_P_0028,Kaplan Business School Australia,"Level 1, 55 Elizabeth Street",New South Wales,,Sydney,,2000,Sydney,,Australia,NO,https://www.kbs.edu.au/about-us/campus-locations/adelaide-campus,"The KBS Adelaide Campus is situated right in the heart of the city, minutes away from the main shopping district, Rundle Mall, which is filled with popular stores, eateries and vibrant nightspots. The abundance of open park lands, its proximity to various wine regions, the happy locals and the short 20-minute drive to the beach make Adelaide a truly unique study destination.","-33.871620, 151.210070",02426B
SN_L_0055,Melbourne Campus,SN_P_0028,Kaplan Business School Australia,"Level 4, 370 Docklands Drive",Victoria,,Docklands,,3008,Melbourne,,Australia,NO,https://www.kbs.edu.au/about-us/campus-locations/adelaide-campus,"The KBS Adelaide Campus is situated right in the heart of the city, minutes away from the main shopping district, Rundle Mall, which is filled with popular stores, eateries and vibrant nightspots. The abundance of open park lands, its proximity to various wine regions, the happy locals and the short 20-minute drive to the beach make Adelaide a truly unique study destination.","-37.812910, 144.941980",02426B
SN_L_0056,Sydney Campus,,The Hotel School,60 Phillip Street,New South Wales,,Sydney,,2000,Sydney,,Australia,YES,https://www.scu.edu.au/study-at-scu/why-scu/locations/lismore/,"Southern Cross University's Lismore campus occupies 75 hectares of lush, sub-tropical grounds including landscaped gardens and rainforest walkways that are home to a variety of native wildlife.

International airports near East Lismore, Australia
101 km: Gold Coast, Australia (OOL / YBCG) Gold Coast Airport
208 km: Brisbane, Australia (BNE / YBBN) Brisbane Airport","-33.8618966, 151.2121203",01241G
SN_L_0057,SAE Melbourne,SN_P_0017,SAE Creative Media Institute,235 Normanby Road,Victoria,,South Melbourne,,3205,Melbourne,,Australia,NO,https://sae.edu.au/campuses/melbourne/,SAE Melbourne boasts state-of-the-art facilities and a teaching team with outstanding professional and educational expertise ready to help you become an industry-ready graduate.,"-37.829867, 144.9468996",00312F
SN_L_0058,SAE Brisbane,SN_P_0017,SAE Creative Media Institute,Cnr Jane Street & Riverside Drive,Queensland,,West End,,4101,Brisbane,,Australia,NO,https://sae.edu.au/campuses/melbourne/,SAE Melbourne boasts state-of-the-art facilities and a teaching team with outstanding professional and educational expertise ready to help you become an industry-ready graduate.,"43.247999, -85.069005",00312F
SN_L_0059,SAE Perth,SN_P_0017,SAE Creative Media Institute,116-120 Roe Street,Western Australia,,Northbridge,,6003,Perth,,Australia,NO,https://sae.edu.au/campuses/melbourne/,SAE Melbourne boasts state-of-the-art facilities and a teaching team with outstanding professional and educational expertise ready to help you become an industry-ready graduate.,"-31.9479072, 115.8541837",00312F
SN_L_0060,SAE Sydney,SN_P_0017,SAE Creative Media Institute,39 Regent Street,New South Wales,,Chippendale,,2008,Sydney,,Australia,NO,https://sae.edu.au/campuses/melbourne/,SAE Melbourne boasts state-of-the-art facilities and a teaching team with outstanding professional and educational expertise ready to help you become an industry-ready graduate.,"-33.8852879, 151.2025308",00312F
SN_L_0061,SAE Byron Bay,SN_P_0017,SAE Creative Media Institute,373-391 Ewingsdale Road,New South Wales,,Byron Bay,,2481,Sydney,,Australia,NO,https://sae.edu.au/campuses/melbourne/,SAE Melbourne boasts state-of-the-art facilities and a teaching team with outstanding professional and educational expertise ready to help you become an industry-ready graduate.,"-28.6370856, 153.5906902",00312F
SN_L_0062,Gold Coast Campus,SN_P_0025,Griffith College,"Level 4, International Building G52, Parklands Drive",Queensland,,Southport,,4222,Gold Coast,,Australia,YES,https://www.griffithcollege.edu.au/contact/,"Located on the edge of Toohey Forest with panoramic views of Brisbane, Mount Gravatt campus is the original site of Griffith College, opened in 1997. Adjacent to Griffith Nathan campus with panoramic views of Brisbane, Mount Gravatt has more than 4,000 students and offers degrees in criminology and criminal justice, education and psychology.","-27.961860, 153.382770",01737F
SN_L_0063,Haymarket,SN_P_0020,UTS College,187 Thomas Street,New South Wales,,Haymarket,,2000,Sydney,,Australia,NO,https://utscollege.edu.au/contact-us,"UTS has invested $1.3 billion in creating a dynamic and interconnected campus of the future, with award winning buildings, state-of-the-art facilities and sustainable design. We've got tech-driven, purpose-built spaces that'll inspire you to learn, as well as spaces for industry collaboration. When you're not in class, take advantage of the many student spaces, relax on the Alumni Green and enjoy the central location. UTS is close to Sydney's CBD, walking distance to Central Station, and just a few steps away from places to shop, eat and socialise.","-33.8815429, 151.2036976",00859D
SN_L_0064,Adelaide,SN_P_0023,Australian College of Applied Professions (ACAP),16-20 Coglin Street,South Australia,,Adelaide,,5000,Adelaide,,Australia,NO,https://www.acap.edu.au/campuses/melbourne/,"ACAP's Melbourne campus is conveniently located on Lonsdale street in the heart of the Melbourne CBD (Central Business District), located near Chinatown and just a 5 minute walk to Melbourne's Greek precinct and close to shops, cafes and restaurants. ACAP's Melbourne campus is also easy to access via public transport.","-34.930970, 138.598120",01328A
SN_L_0065,Sydney CBD,SN_P_0005,"The University of Newcastle, Australia",55 Elizabeth Street,New South Wales,,Sydney,,2000,Sydney,,Australia,YES,https://www.newcastle.edu.au/campus-life/newcastle/callaghan,"The original campus for The University of Newcastle, Australia, Callaghan is a beautiful mix of award-winning, architecturally designed buildings sitting across 140 hectares in a natural setting. Our relaxed campus environment allows you to study free from distraction.

We are equipping our campus with infrastructure that will meet the needs of our students, staff and researchers well into the future. Our ongoing investment in state-of-the-art buildings and facilities will attract the best and brightest students, researchers, academic and professional staff. A campus-wide, fibre-optic network provides excellent access to specialist and public online service.","-33.8804469, 151.2088682",00109J
SN_L_0066,Port Macquarie,SN_P_0002,Charles Sturt University,7 Major Innes Road,New South Wales,,Port Macquarie,,2444,Sydney,,Australia,YES,https://about.csu.edu.au/locations/campuses/albury-wodonga,"CSU's Albury-Wodonga Campus was designed with sustainability in mind. Its buildings feature many environmentally sensitive features to minimise the use of heating and cooling. Ecologically significant wetlands and a huge variety of native flora and fauna can also be seen on the campus. A small and friendly campus environment means you will meet other students from a range of courses and feel part of a close-knit community.

International airports near Albury, Australia:
304 km: Melbourne, Australia (MEL / YMML) Melbourne Airport.","-31.4581103, 152.8741432",00005F
SN_L_0067,Port Macquarie,SN_P_0005,"The University of Newcastle, Australia",70 Widderson Street,New South Wales,,Port Macquarie,,2444,Sydney,,Australia,YES,https://www.newcastle.edu.au/campus-life/newcastle/callaghan,"The original campus for The University of Newcastle, Australia, Callaghan is a beautiful mix of award-winning, architecturally designed buildings sitting across 140 hectares in a natural setting. Our relaxed campus environment allows you to study free from distraction.

We are equipping our campus with infrastructure that will meet the needs of our students, staff and researchers well into the future. Our ongoing investment in state-of-the-art buildings and facilities will attract the best and brightest students, researchers, academic and professional staff. A campus-wide, fibre-optic network provides excellent access to specialist and public online service.","-31.4389484, 152.8901493",00109J
SN_L_0068,Brisbane Campus,SN_P_0028,Kaplan Business School Australia,"Ground Level, 369 Ann Street",Queensland,,Brisbane,,4000,Brisbane,,Australia,NO,https://www.kbs.edu.au/about-us/campus-locations/adelaide-campus,"The KBS Adelaide Campus is situated right in the heart of the city, minutes away from the main shopping district, Rundle Mall, which is filled with popular stores, eateries and vibrant nightspots. The abundance of open park lands, its proximity to various wine regions, the happy locals and the short 20-minute drive to the beach make Adelaide a truly unique study destination.","-27.464240, 153.029280",02426B
SN_L_0069,National Marine Science Centre,SN_P_0022,Southern Cross University,2 Bay Drive,New South Wales,,Coffs Harbour,,2450,Gold Coast,,Australia,YES,https://www.scu.edu.au/study-at-scu/why-scu/locations/lismore/,"Southern Cross University's Lismore campus occupies 75 hectares of lush, sub-tropical grounds including landscaped gardens and rainforest walkways that are home to a variety of native wildlife.

International airports near East Lismore, Australia
101 km: Gold Coast, Australia (OOL / YBCG) Gold Coast Airport
208 km: Brisbane, Australia (BNE / YBBN) Brisbane Airport","-30.2676946, 153.1375154",01241G
SN_L_0070,Eynesbury Coglin Street,SN_P_0018,Eynesbury College,16-20 Coglin Street,South Australia,,Adelaide,,5000,Adelaide,,Australia,YES,https://www.eynesbury.edu.au/about/campus,"Eynesbury has two campuses, both located in the center of Adelaide city, near the Chinatown and Central Market precinct. while our Franklin Street campus is for our Senior High School.","-34.930809, 138.598312",00561M
SN_L_0071,Parramatta City,SN_P_0021,Western Sydney University,"169 Macquarie Street and 100 George Street, Parramatta",New South Wales,,Sydney,,2150,Sydney,,Australia,YES,https://www.westernsydney.edu.au/future/our-campuses/bankstown-campus,"Our Bankstown campus offers you state-of-the-art computer labs and study areas, great cafes and on-campus activities, plus a full range of student services.","-33.813940, 151.006870",00917K
SN_L_0072,Penrith (Kingswood),SN_P_0021,Western Sydney University,"Second Avenue, Kingswood",New South Wales,,Sydney,,2747,Sydney,,Australia,YES,https://www.westernsydney.edu.au/future/our-campuses/bankstown-campus,"Our Bankstown campus offers you state-of-the-art computer labs and study areas, great cafes and on-campus activities, plus a full range of student services.","-33.763939, 150.727234",00917K
SN_L_0073,Liverpool City,SN_P_0021,Western Sydney University,"100 Macquarie Street, Liverpool",New South Wales,,Sydney,,2170,Sydney,,Australia,YES,https://www.westernsydney.edu.au/future/our-campuses/bankstown-campus,"Our Bankstown campus offers you state-of-the-art computer labs and study areas, great cafes and on-campus activities, plus a full range of student services.","-33.925290, 150.922460",00917K
SN_L_0074,Victoria Square,SN_P_0007,Flinders University,182 Victoria Square,South Australia,,Adelaide,,5000,Adelaide,,Australia,YES,https://www.flinders.edu.au/campus/bedford-park,"Located just 12km south of the centre of Adelaide, the Bedford Park campus is Flinders' main campus. It's a spacious, elevated site with panoramic views to the coast and over the city. Our Student Hub offers 24/7 study spaces and access to all student services in one convenient location.","-34.9294093, 138.5993769",00114A
SN_L_0075,Tonsley,SN_P_0007,Flinders University,1284 South Road,South Australia,,"Tonsley, Clovelly Park",,5042,Adelaide,,Australia,YES,https://www.flinders.edu.au/campus/bedford-park,"Located just 12km south of the centre of Adelaide, the Bedford Park campus is Flinders' main campus. It's a spacious, elevated site with panoramic views to the coast and over the city. Our Student Hub offers 24/7 study spaces and access to all student services in one convenient location.","-35.0050184, 138.5756837",00114A
SN_L_0076,ACD Brooklyn Park,SN_P_0007,Flinders University,34 Lipsett Terrace,South Australia,,Brooklyn Park,,5032,Adelaide,,Australia,YES,https://www.flinders.edu.au/campus/bedford-park,"Located just 12km south of the centre of Adelaide, the Bedford Park campus is Flinders' main campus. It's a spacious, elevated site with panoramic views to the coast and over the city. Our Student Hub offers 24/7 study spaces and access to all student services in one convenient location.","-34.930740, 138.548440",00114A
SN_L_0077,Navitas English Sydney Hyde Park,SN_P_0015,Navitas English Services Pty Ltd,255 Elizabeth Street,New South Wales,,Sydney,,2000,Sydney,,Australia,NO,https://www.navitasenglish.edu.au/schools/learn-english-in-perth/,"Our Perth English language school is located in the lively multicultural suburb of Northbridge, less than 1 kilometre from the city centre. Perth has an average of 8 hours of sunshine a day, 365 days a year. You can explore the area after class, or relax on one of Perth's beautiful beaches.

Perth is the most remote capital city in the world, but it's also the fastest growing. There are great job opportunities in this friendly, relaxed city.

International airports near Perth, Australia:
21 km: Perth, Australia (PER / YPPH) Perth Airport.","-33.8757242, 151.209197",00289M
SN_L_0078,Perth,SN_P_0023,Australian College of Applied Professions (ACAP),"116-120 Roe St, Northbridge",Western Australia,,Perth,,6003,Perth,,Australia,NO,https://www.acap.edu.au/campuses/melbourne/,"ACAP's Melbourne campus is conveniently located on Lonsdale street in the heart of the Melbourne CBD (Central Business District), located near Chinatown and just a 5 minute walk to Melbourne's Greek precinct and close to shops, cafes and restaurants. ACAP's Melbourne campus is also easy to access via public transport.","-31.947780, 115.854800",01328A
SN_L_0079,Melbourne Campus,,The Hotel School,"Level 3, 399 Lonsdale Street",Victoria,,Melbourne,,3000,Melbourne,,Australia,YES,https://www.scu.edu.au/study-at-scu/why-scu/locations/lismore/,"Southern Cross University's Lismore campus occupies 75 hectares of lush, sub-tropical grounds including landscaped gardens and rainforest walkways that are home to a variety of native wildlife.

International airports near East Lismore, Australia
101 km: Gold Coast, Australia (OOL / YBCG) Gold Coast Airport
208 km: Brisbane, Australia (BNE / YBBN) Brisbane Airport","-37.8097472, 144.9710871",01241G
SN_L_0080,Ultimo,SN_P_0031,Torrens University Australia,46-52 Mountain Street,New South Wales,,Ultimo,,2007,Sydney,,Australia,NO,https://www.torrens.edu.au/campuses/sydney/ultimo-sydney,"Ultimo is conveniently located near Sydney hotspots, including Darling Harbour and Chinatown. Getting to our campus is easy: Broadway Shopping Centre bus stop is a two-minute walk away, Central Station is 15-minute walk and Central and Glebe light rail stops are a 15-20-minute walk away. If driving, street parking is available and there are two secure carparks nearby.","-33.8817059, 151.196009",03389E
SN_L_0081,The Rocks,SN_P_0031,Torrens University Australia,1-5 Hickson Road,New South Wales,,The Rocks,,2000,Sydney,,Australia,NO,https://www.torrens.edu.au/campuses/sydney/ultimo-sydney,"Ultimo is conveniently located near Sydney hotspots, including Darling Harbour and Chinatown. Getting to our campus is easy: Broadway Shopping Centre bus stop is a two-minute walk away, Central Station is 15-minute walk and Central and Glebe light rail stops are a 15-20-minute walk away. If driving, street parking is available and there are two secure carparks nearby.","-33.8556242, 151.2091065",03389E
SN_L_0082,Torrens University Language Centre (TULC) - Kent Street Campus,SN_P_0031,Torrens University Australia,"Levels 2-4, 333 Kent Street",New South Wales,,Sydney,,2000,Sydney,,Australia,NO,https://www.torrens.edu.au/campuses/sydney/ultimo-sydney,"Ultimo is conveniently located near Sydney hotspots, including Darling Harbour and Chinatown. Getting to our campus is easy: Broadway Shopping Centre bus stop is a two-minute walk away, Central Station is 15-minute walk and Central and Glebe light rail stops are a 15-20-minute walk away. If driving, street parking is available and there are two secure carparks nearby.","-33.8687914, 151.2045904",03389E
SN_L_0083,Leura,SN_P_0031,Torrens University Australia,1 Chambers Road,New South Wales,,Leura,,2780,Sydney,,Australia,NO,https://www.torrens.edu.au/campuses/sydney/ultimo-sydney,"Ultimo is conveniently located near Sydney hotspots, including Darling Harbour and Chinatown. Getting to our campus is easy: Broadway Shopping Centre bus stop is a two-minute walk away, Central Station is 15-minute walk and Central and Glebe light rail stops are a 15-20-minute walk away. If driving, street parking is available and there are two secure carparks nearby.","-33.720376, 150.3426179",03389E
SN_L_0084,Fitzroy,SN_P_0031,Torrens University Australia,25 Victoria Street,Victoria,,Fitzroy,,3065,Melbourne,,Australia,NO,https://www.torrens.edu.au/campuses/sydney/ultimo-sydney,"Ultimo is conveniently located near Sydney hotspots, including Darling Harbour and Chinatown. Getting to our campus is easy: Broadway Shopping Centre bus stop is a two-minute walk away, Central Station is 15-minute walk and Central and Glebe light rail stops are a 15-20-minute walk away. If driving, street parking is available and there are two secure carparks nearby.","-37.7989222, 144.977281",03389E
SN_L_0085,Flinders Street,SN_P_0031,Torrens University Australia,196 Flinders Street,Victoria,,Melbourne,,3000,Melbourne,,Australia,NO,https://www.torrens.edu.au/campuses/sydney/ultimo-sydney,"Ultimo is conveniently located near Sydney hotspots, including Darling Harbour and Chinatown. Getting to our campus is easy: Broadway Shopping Centre bus stop is a two-minute walk away, Central Station is 15-minute walk and Central and Glebe light rail stops are a 15-20-minute walk away. If driving, street parking is available and there are two secure carparks nearby.","-37.8179793, 144.9671293",03389E
SN_L_0086,Fortitude Valley,SN_P_0031,Torrens University Australia,90 Bowen Terrace,Queensland,,Fortitude Valley,,4006,Brisbane,,Australia,NO,https://www.torrens.edu.au/campuses/sydney/ultimo-sydney,"Ultimo is conveniently located near Sydney hotspots, including Darling Harbour and Chinatown. Getting to our campus is easy: Broadway Shopping Centre bus stop is a two-minute walk away, Central Station is 15-minute walk and Central and Glebe light rail stops are a 15-20-minute walk away. If driving, street parking is available and there are two secure carparks nearby.","-27.4611697, 153.0360478",03389E
SN_L_0087,Adelaide,SN_P_0031,Torrens University Australia,88 Wakefield Street,South Australia,,Adelaide,,5000,Adelaide,,Australia,NO,https://www.torrens.edu.au/campuses/sydney/ultimo-sydney,"Ultimo is conveniently located near Sydney hotspots, including Darling Harbour and Chinatown. Getting to our campus is easy: Broadway Shopping Centre bus stop is a two-minute walk away, Central Station is 15-minute walk and Central and Glebe light rail stops are a 15-20-minute walk away. If driving, street parking is available and there are two secure carparks nearby.","-34.9282941, 138.6082259",03389E
SN_L_0088,Parramatta City,SN_P_0032,"Western Sydney University, International College","100 George Street, Parramatta",New South Wales,,Sydney,,2150,Sydney,,Australia,YES,https://internationalcollege.westernsydney.edu.au/contact-us,"As an International College student, you will enjoy modern teaching and learning spaces along with breakout areas, computer facilities and extensive open space all located on campus.

The campus is conveniently located and easily accessible via public transport systems, and has a free shuttle bus service nearby to the Western Sydney University Parramatta campus.

As a student at our Parramatta City campus, you can enjoy a range of food outlets, recreation areas, entertainment venues and shopping centres at your doorstep, as well as a short walk from the Parramatta Transport Interchange.","-33.813940, 151.006870",03663C
SN_L_0089,CDU Darwin Waterfront,SN_P_0016,Charles Darwin University International College,21 Kitchener Drive,Northern Territory,,Darwin,,800,Darwin,,Australia,YES,https://www.cdu.edu.au/locations/palmerston-campus,"CDU's Palmerston campus is a friendly, warm and welcoming place for students, staff and visitors. Our aim is to engage with the dynamic and growing community of Palmerston and the surrounding region in order to contribute to growth and development for future generations.The campus is home to a number of VET courses, and our highly acclaimed teaching team consists of experts in culinary arts - commercial cookery, bakery and butchery, tourism and hospitality, hair, beauty and retail, sport and recreation, fitness,  Information Communication and Technology (ICT), spoken and written English courses, and children's services and education support.","-12.4693525, 130.8438068",00300K
SN_L_0090,Batemans Bay Campus,SN_P_0003,"University of Wollongong, Australia","Hanging Rock, Beach Road",New South Wales,,Batemans Bay,,2536,Sydney,,Australia,YES,https://www.uow.edu.au/about/locations/wollongong/,UOW's main Wollongong campus is set in native Australian bush and is one of the most picturesque university campuses in Australia.,"-35.70658, 150.17541",00102E
SN_L_0091,Bega Campus,SN_P_0003,"University of Wollongong, Australia",176 Auckland Street,New South Wales,,Bega,,2550,Sydney,,Australia,YES,https://www.uow.edu.au/about/locations/wollongong/,UOW's main Wollongong campus is set in native Australian bush and is one of the most picturesque university campuses in Australia.,"-36.6777714, 149.8403785",00102E
SN_L_0092,Shoalhaven Campus,SN_P_0003,"University of Wollongong, Australia",George Evans Road,New South Wales,,Mundamia,,2540,Sydney,,Australia,YES,https://www.uow.edu.au/about/locations/wollongong/,UOW's main Wollongong campus is set in native Australian bush and is one of the most picturesque university campuses in Australia.,"-34.8935571, 150.5726787",00102E
SN_L_0093,Southern Highlands Campus,SN_P_0003,"University of Wollongong, Australia",Kirkham Street,New South Wales,,Moss Vale,,2577,Sydney,,Australia,YES,https://www.uow.edu.au/about/locations/wollongong/,UOW's main Wollongong campus is set in native Australian bush and is one of the most picturesque university campuses in Australia.,"-34.55374, 150.37115",00102E
SN_L_0094,Southern Sydney Campus,SN_P_0003,"University of Wollongong, Australia",1 Pitt Street,New South Wales,,Loftus,,2232,Sydney,,Australia,YES,https://www.uow.edu.au/about/locations/wollongong/,UOW's main Wollongong campus is set in native Australian bush and is one of the most picturesque university campuses in Australia.,"-34.0447374, 151.0524202",00102E
SN_L_0095,South Western Sydney Campus,SN_P_0003,"University of Wollongong, Australia",33 Moore Street,New South Wales,,Liverpool,,2170,Sydney,,Australia,YES,https://www.uow.edu.au/about/locations/wollongong/,UOW's main Wollongong campus is set in native Australian bush and is one of the most picturesque university campuses in Australia.,"-33.9224085, 150.9252184",00102E
SN_L_0096,Coomera Campus,SN_P_0022,Southern Cross University,"198 Foxwell Road, Coomera",Queensland,,Gold Coast,,4209,Gold Coast,,Australia,YES,https://www.scu.edu.au/study-at-scu/why-scu/locations/lismore/,"Southern Cross University's Lismore campus occupies 75 hectares of lush, sub-tropical grounds including landscaped gardens and rainforest walkways that are home to a variety of native wildlife.

International airports near East Lismore, Australia
101 km: Gold Coast, Australia (OOL / YBCG) Gold Coast Airport
208 km: Brisbane, Australia (BNE / YBBN) Brisbane Airport","-27.8555017, 153.3141714",01241G
SN_L_0097,Online,SN_P_0022,Southern Cross University,Online,Online,,Online,,XXXX,Online,,Australia,YES,https://www.scu.edu.au/study-at-scu/why-scu/locations/lismore/,"Southern Cross University's Lismore campus occupies 75 hectares of lush, sub-tropical grounds including landscaped gardens and rainforest walkways that are home to a variety of native wildlife.

International airports near East Lismore, Australia
101 km: Gold Coast, Australia (OOL / YBCG) Gold Coast Airport
208 km: Brisbane, Australia (BNE / YBBN) Brisbane Airport",NA,01241G
SN_L_0098,Gotha Street,SN_P_0031,Torrens University Australia,123 Gotha Street,Queensland,,Fortitude Valley,,4006,Brisbane,,Australia,NO,https://www.torrens.edu.au/campuses/sydney/ultimo-sydney,"Ultimo is conveniently located near Sydney hotspots, including Darling Harbour and Chinatown. Getting to our campus is easy: Broadway Shopping Centre bus stop is a two-minute walk away, Central Station is 15-minute walk and Central and Glebe light rail stops are a 15-20-minute walk away. If driving, street parking is available and there are two secure carparks nearby.","-27.4585224, 153.0301709",03389E
SN_L_0099,Brisbane,SN_P_0009,James Cook University Brisbane,349 Queen Street,Queensland,,Brisbane,,4000,Brisbane,,Australia,YES,https://www.jcu.edu.au/about-jcu/campuses/townsville,"JCU Townsville houses teaching and research facilities, the main JCU library, cafes, bars, fitness and sporting facilities and a wealth of student clubs and societies.","-27.466600, 153.029260",00117J
SN_L_0100,Melbourne Campus,SN_P_0010,The University of Adelaide,"370 Docklands Drive, Docklands",Victoria,,Melbourne,,3008,Melbourne,,Australia,YES,https://www.adelaide.edu.au/campuses/north-terrace/,"Located in the heart of Adelaide, the main campus at North Terrace forms part of the city's cultural promenade surrounded by the state's art gallery, museum and library.

The campus provides a mix of the historical and contemporary, combining old sandstone buildings with state-of-the-art teaching, learning and research facilities.

North Terrace is the main location for undergraduate teaching and a vast range of research activities.","-37.812910, 144.941980",00123M
SN_L_0101,Online,SN_P_0002,Charles Sturt University,Online,Online,,Online,,XXXX,Online,,Australia,YES,https://about.csu.edu.au/locations/campuses/albury-wodonga,"CSU's Albury-Wodonga Campus was designed with sustainability in mind. Its buildings feature many environmentally sensitive features to minimise the use of heating and cooling. Ecologically significant wetlands and a huge variety of native flora and fauna can also be seen on the campus. A small and friendly campus environment means you will meet other students from a range of courses and feel part of a close-knit community.

International airports near Albury, Australia:
304 km: Melbourne, Australia (MEL / YMML) Melbourne Airport.",NA,00005F
SN_L_0102,Perth Campus,SN_P_0028,Kaplan Business School Australia,1325 Hay Street,Western Australia,,West Perth,,6005,Perth,,Australia,NO,https://www.kbs.edu.au/about-us/campus-locations/adelaide-campus,"The KBS Adelaide Campus is situated right in the heart of the city, minutes away from the main shopping district, Rundle Mall, which is filled with popular stores, eateries and vibrant nightspots. The abundance of open park lands, its proximity to various wine regions, the happy locals and the short 20-minute drive to the beach make Adelaide a truly unique study destination.","-31.947750, 115.838180",02426B
SN_L_0103,Brisbane Campus,,The Hotel School,"Level 13, 127 Creek Street",Queensland,,Brisbane,,4000,Brisbane,,Australia,YES,https://www.scu.edu.au/study-at-scu/why-scu/locations/lismore/,"Southern Cross University's Lismore campus occupies 75 hectares of lush, sub-tropical grounds including landscaped gardens and rainforest walkways that are home to a variety of native wildlife.

International airports near East Lismore, Australia
101 km: Gold Coast, Australia (OOL / YBCG) Gold Coast Airport
208 km: Brisbane, Australia (BNE / YBBN) Brisbane Airport","-27.4657029, 153.027614",01241G
SN_L_0104,Online,,The Hotel School,Online,Online,,Online,,XXXX,Online,,Australia,YES,https://www.scu.edu.au/study-at-scu/why-scu/locations/lismore/,"Southern Cross University's Lismore campus occupies 75 hectares of lush, sub-tropical grounds including landscaped gardens and rainforest walkways that are home to a variety of native wildlife.

International airports near East Lismore, Australia
101 km: Gold Coast, Australia (OOL / YBCG) Gold Coast Airport
208 km: Brisbane, Australia (BNE / YBBN) Brisbane Airport",NA,01241G
SN_L_0105,University of Newcastle College of International Education,,The University of Newcastle College of International Education,376 Hunter Street,New South Wales,,Newcastle,,2300,Sydney,,Australia,YES,https://www.newcastle.edu.au/campus-life/newcastle/callaghan,"The original campus for The University of Newcastle, Australia, Callaghan is a beautiful mix of award-winning, architecturally designed buildings sitting across 140 hectares in a natural setting. Our relaxed campus environment allows you to study free from distraction.

We are equipping our campus with infrastructure that will meet the needs of our students, staff and researchers well into the future. Our ongoing investment in state-of-the-art buildings and facilities will attract the best and brightest students, researchers, academic and professional staff. A campus-wide, fibre-optic network provides excellent access to specialist and public online service.","-32.9268466, 151.7741382",00109J
SN_L_0106,Hayman Island Campus,,The Hotel School,"1, Raintree Avenue",Queensland,,Hayman Island,,4801,Cairns,,Australia,YES,https://www.scu.edu.au/study-at-scu/why-scu/locations/lismore/,"Southern Cross University's Lismore campus occupies 75 hectares of lush, sub-tropical grounds including landscaped gardens and rainforest walkways that are home to a variety of native wildlife.

International airports near East Lismore, Australia
101 km: Gold Coast, Australia (OOL / YBCG) Gold Coast Airport
208 km: Brisbane, Australia (BNE / YBBN) Brisbane Airport","-27.859420, 153.373550",01241G
SN_L_0107,Byron Bay campus,SN_P_0023,Australian College of Applied Professions (ACAP),373-391 Ewingsdale Road,New South Wales,,Byron Bay,,2481,Sydney,,Australia,NO,https://www.acap.edu.au/campuses/melbourne/,"ACAP's Melbourne campus is conveniently located on Lonsdale street in the heart of the Melbourne CBD (Central Business District), located near Chinatown and just a 5 minute walk to Melbourne's Greek precinct and close to shops, cafes and restaurants. ACAP's Melbourne campus is also easy to access via public transport.","-28.636990, 153.590408",01328A
SN_L_0108,Gosford,SN_P_0005,"The University of Newcastle, Australia","77 Holden St,",New South Wales,,Gosford,,2250,Sydney,,Australia,YES,https://www.newcastle.edu.au/campus-life/newcastle/callaghan,"The original campus for The University of Newcastle, Australia, Callaghan is a beautiful mix of award-winning, architecturally designed buildings sitting across 140 hectares in a natural setting. Our relaxed campus environment allows you to study free from distraction.

We are equipping our campus with infrastructure that will meet the needs of our students, staff and researchers well into the future. Our ongoing investment in state-of-the-art buildings and facilities will attract the best and brightest students, researchers, academic and professional staff. A campus-wide, fibre-optic network provides excellent access to specialist and public online service.","-33.420560, 151.341070",00109J
SN_L_0109,"Surry Hills, Central Sydney campus",SN_P_0031,Torrens University Australia,17-51 Foveaux Street,New South Wales,,Surry Hills,,2010,Sydney,,Australia,NO,https://www.torrens.edu.au/campuses/sydney/ultimo-sydney,"Ultimo is conveniently located near Sydney hotspots, including Darling Harbour and Chinatown. Getting to our campus is easy: Broadway Shopping Centre bus stop is a two-minute walk away, Central Station is 15-minute walk and Central and Glebe light rail stops are a 15-20-minute walk away. If driving, street parking is available and there are two secure carparks nearby.","-33.88414, 151.2094",03389E
SN_L_0110,Sunshine Campus,SN_P_0011,Victoria University,"438-460 Ballarat Road, , 3020, VIC, AU",Victoria,,Sunshine North,,3020,Melbourne,,Australia,YES,https://www.vu.edu.au/campuses/footscray-nicholson,"Footscray Nicholson Campus is a few minutes' walk from the Footscray train station.

This relaxed and friendly campus has an emphasis on TAFE courses, run through VU Polytechnic.

It's easy to find your way around - there is a brand new learning commons with a library and study spaces.","-37.777650, 144.836750",00124K
SN_L_0111,VU City Campus,SN_P_0011,Victoria University,"370 Little Lonsdale Street (VU City Tower), and 295 Queen Street",Victoria,,Melbourne,,3000,Melbourne,,Australia,YES,https://www.vu.edu.au/campuses/footscray-nicholson,"Footscray Nicholson Campus is a few minutes' walk from the Footscray train station.

This relaxed and friendly campus has an emphasis on TAFE courses, run through VU Polytechnic.

It's easy to find your way around - there is a brand new learning commons with a library and study spaces.","-37.812110, 144.958590",00124K
SN_L_0112,The University of Western Australia,,University of Western Australia College,35 Stirling Highway,Western Australia,,Perth,,6009,Perth,,Australia,YES,https://www.uwa.edu.au/study/why-choose-uwa/campuses,"On the banks of the Swan River, just minutes from the city of Perth, sits our main campus. With additional facilities in Claremont and Nedlands, it's home to more than 22,000 students and 3500 staff.

Featuring cafes, libraries, sporting facilities, galleries, shops and many other dedicated student amenities, the Perth campus is more like a small town.

Open courtyards and expansive green spaces make studying, catching up with friends and relaxing outdoors an invigorating experience.

We provide an ideal learning environment, with modern teaching and research facilities, lecture and performance theatres, tutorial spaces, studios and laboratories.","-31.977680, 115.810387",00126G
SN_L_0113,The University of Western Australia,,The University of Western Australia (UWA) - INTO,35 Stirling Highway,Western Australia,,Perth,,6009,Perth,,Australia,YES,https://www.uwa.edu.au/study/why-choose-uwa/campuses,"On the banks of the Swan River, just minutes from the city of Perth, sits our main campus. With additional facilities in Claremont and Nedlands, it's home to more than 22,000 students and 3500 staff.

Featuring cafes, libraries, sporting facilities, galleries, shops and many other dedicated student amenities, the Perth campus is more like a small town.

Open courtyards and expansive green spaces make studying, catching up with friends and relaxing outdoors an invigorating experience.

We provide an ideal learning environment, with modern teaching and research facilities, lecture and performance theatres, tutorial spaces, studios and laboratories.","-31.9776666, 115.8104007",00126G
SN_L_0114,ECA-HE-Online,SN_P_0030,Asia Pacific International College (APIC),Online,,,,,,,,Australia,NO,https://www.professionalyear.info/wp-content/uploads/2019/07/PY-Handbook.pdf,NA,,03048D
SN_L_0115,ECA-HE-Sydney (Paramatta),SN_P_0030,Asia Pacific International College (APIC)," Level 6, 1-3 Fitzwilliam Street",,,,,,,,Australia,NO,https://www.professionalyear.info/wp-content/uploads/2019/07/PY-Handbook.pdf,NA,,03048D
SN_L_0116,ECA-HE-Melbourne,SN_P_0030,Asia Pacific International College (APIC),655 Collins St,,,,,,,,Australia,NO,https://www.professionalyear.info/wp-content/uploads/2019/07/PY-Handbook.pdf,NA,,03048D
SN_L_0117,ECA-HE-Brisbane,SN_P_0030,Asia Pacific International College (APIC),269 Wickham Street,,,,,,,,Australia,NO,https://www.professionalyear.info/wp-content/uploads/2019/07/PY-Handbook.pdf,NA,,03048D
SN_L_0118,ECAC-Sydney,SN_P_0029,ECA College,"Level 4, 1-3 Fitzwilliam Street",,,,,,,,Australia,NO,https://www.eca.edu.au/living-in-brisbane/,NA,,02644C
SN_L_0119,ECAC-Melbourne,SN_P_0029,ECA College,655 Collins Street,,,,,,,,Australia,NO,https://www.eca.edu.au/living-in-brisbane/,NA,,02644C
SN_L_0120,ECAC-Brisbane,SN_P_0029,ECA College, 269 Wickham Street,,,,,,,,Australia,NO,https://www.eca.edu.au/living-in-brisbane/,NA,,02644C
SN_L_0121,ELSIS-Adelaide,,ELSIS,"Level 10,182 Victoria Square",,,,,,,,Australia,NO,https://www.eca.edu.au/living-in-brisbane/,NA,,02644C
SN_L_0122,ELSIS-Sydney,,ELSIS,"160 Sussex St, Level 1",,,,,,,,Australia,NO,https://www.eca.edu.au/living-in-brisbane/,NA,,02644C
SN_L_0123,ELSIS-Melbourne,,ELSIS,"655 Collins St, Upper Ground, Levels 2 & 3",,,,,,,,Australia,NO,https://www.eca.edu.au/living-in-brisbane/,NA,,02644C
SN_L_0124,ELSIS-Brisbane,,ELSIS,"Ground Level & Level 3, 269 Wickham St Fortitude Valley",,,,,,,,Australia,NO,https://www.eca.edu.au/living-in-brisbane/,NA,,02644C
SN_L_0125,Ballarat - Admin Campus,SN_P_0004,Federation University,107 Lydiard St S,Victoria,,Ballarat,,,,,Australia,,,,,00103D
SN_L_0126,Mt Helen - ATMC support,SN_P_0004,Federation University,University Drive,,,,,,,,Australia,,,,,00103D
SN_L_0127,Melbourne City Campus,SN_P_0004,Federation University,470 Bourke Street,Victoria,,Melbourne,,,,,Australia,,,,,00103D
SN_L_0128,Navitas Brisbane,SN_P_0004,Federation University,410 Ann Street,Queensland,,Brisbane,,,,,Australia,,,,,00103D
SN_L_0129,Ballarat - SMB,SN_P_0004,Federation University,107 Lydiard St S,Victoria,,Ballarat,,,,,Australia,,,,,00103D
SN_L_0130,Wimmera - Horsham,SN_P_0004,Federation University,Baillie St ,,,,,,,,Australia,,,,,00103D
SN_L_0131,ATMC Sydney Druitt St,SN_P_0004,Federation University,432 Druitt Street,New South Wales,,Sydney,,,,,Australia,,,,,00103D
SN_L_0132,ATMC Melbourne Collins St,SN_P_0004,Federation University,104 Collins Street,Victoria,,Melbourne,,,,,Australia,,,,,00103D
SN_L_0133,HUST-Federation IT Institute,SN_P_0004,Federation University,,Victoria,,Ballarat,,,,,Australia,,,,,00103D
SN_L_0134,ATMC Sydney George St,SN_P_0004,Federation University,Level 9 540 George Street,New South Wales,,Sydney,,,,,Australia,,,,,00103D
SN_L_0135,MIT Sydney,SN_P_0004,Federation University,154 Sussex Street,New South Wales,,Sydney,,,,,Australia,,,,,00103D
SN_L_0136,MIT Melbourne,SN_P_0004,Federation University,284-294 La Trobe Street,Victoria,,Melbourne,,,,,Australia,,,,,00103D
SN_L_0137,ATMC Melbourne Bourke Street,SN_P_0004,Federation University,470 Bourke Street,Victoria,,Melbourne,,,,,Australia,,,,,00103D
SN_L_0138,IIBIT Sydney,SN_P_0004,Federation University,"Level 4, 841 George Street",New South Wales,,Sydney,,,,,Australia,,,,,00103D
SN_L_0139,IIBIT Adelaide,SN_P_0004,Federation University,"Level 6, 127 Rundle Mall",South Australia,,Adelaide,,,,,Australia,,,,,00103D
SN_L_0140,Ballarat - Camp Street,SN_P_0004,Federation University,Camp Street,Victoria,,Ballarat,,,,,Australia,,,,,00103D
SN_L_0141,Brisbane,SN_P_0004,Federation University,"Level 5-7, 333 Ann Street",Queensland,,Brisbane,,,,,Australia,,,,,00103D
SN_L_0142,Ballarat - Mt Helen,SN_P_0004,Federation University,University Drive,Victoria,,Mount Helen,,,,,Australia,,,,,00103D
SN_L_0143,Berwick,SN_P_0004,Federation University,100 Clyde Road,Victoria,,Berwick,,,,,Australia,,,,,00103D
SN_L_0144,On-line Learning,SN_P_0004,Federation University,University Drive,Victoria,,Mount Helen,,,,,Australia,,,,,00103D
SN_L_0145,Gippsland - Churchill,SN_P_0004,Federation University,Northways Road,Victoria,,Churchill,,,,,Australia,,,,,00103D
SN_L_0146,Distance,SN_P_0001,Macquarie University,,,,,,,,,Australia,,,,,00002J
SN_L_0147,Online (Domestic Only),SN_P_0001,Macquarie University,Online,,,,,,,,Australia,,,,,00002J
SN_L_0148,Melbourne Campus (Domestic Only),SN_P_0001,Macquarie University,,,,,,,,,Australia,,,,,00002J
SN_L_0149,"City Campus (123 Pitt Street, Angel Place, Sydney)",SN_P_0001,Macquarie University,"Level 24, 123 Pitt Street (Angel Place)",,,,,,,,Australia,,,,,00002J
SN_L_0150,North Ryde,SN_P_0001,Macquarie University, Balaclava Rd,,,,,,,,Australia,,,,,00002J
SN_L_0151,,0,,,,,,,,,,,,,,,
SN_L_0152,,0,,,,,,,,,,,,,,,
SN_L_0153,,0,,,,,,,,,,,,,,,
SN_L_0154,,0,,,,,,,,,,,,,,,
SN_L_0155,,0,,,,,,,,,,,,,,,
SN_L_0156,,0,,,,,,,,,,,,,,,
SN_L_0157,,0,,,,,,,,,,,,,,,
SN_L_0158,,0,,,,,,,,,,,,,,,
SN_L_0159,,0,,,,,,,,,,,,,,,
SN_L_0160,,0,,,,,,,,,,,,,,,
SN_L_0161,,0,,,,,,,,,,,,,,,
SN_L_0162,,0,,,,,,,,,,,,,,,
SN_L_0163,,0,,,,,,,,,,,,,,,
SN_L_0164,,0,,,,,,,,,,,,,,,
SN_L_0165,,0,,,,,,,,,,,,,,,
SN_L_0166,,0,,,,,,,,,,,,,,,
SN_L_0167,,0,,,,,,,,,,,,,,,
SN_L_0168,,0,,,,,,,,,,,,,,,
SN_L_0169,,0,,,,,,,,,,,,,,,
SN_L_0170,,0,,,,,,,,,,,,,,,
SN_L_0171,,0,,,,,,,,,,,,,,,
SN_L_0172,,0,,,,,,,,,,,,,,,
SN_L_0173,,0,,,,,,,,,,,,,,,
SN_L_0174,,0,,,,,,,,,,,,,,,
SN_L_0175,,0,,,,,,,,,,,,,,,
SN_L_0176,,0,,,,,,,,,,,,,,,
SN_L_0177,,0,,,,,,,,,,,,,,,
SN_L_0178,,0,,,,,,,,,,,,,,,
SN_L_0179,,0,,,,,,,,,,,,,,,
SN_L_0180,,0,,,,,,,,,,,,,,,
SN_L_0181,,0,,,,,,,,,,,,,,,
SN_L_0182,,0,,,,,,,,,,,,,,,
SN_L_0183,,0,,,,,,,,,,,,,,,
SN_L_0184,,0,,,,,,,,,,,,,,,
SN_L_0185,,0,,,,,,,,,,,,,,,
SN_L_0186,,0,,,,,,,,,,,,,,,
SN_L_0187,,0,,,,,,,,,,,,,,,
SN_L_0188,,0,,,,,,,,,,,,,,,
SN_L_0189,,0,,,,,,,,,,,,,,,
SN_L_0190,,0,,,,,,,,,,,,,,,
SN_L_0191,,0,,,,,,,,,,,,,,,
SN_L_0192,,0,,,,,,,,,,,,,,,
SN_L_0193,,0,,,,,,,,,,,,,,,
SN_L_0194,,0,,,,,,,,,,,,,,,
SN_L_0195,,0,,,,,,,,,,,,,,,
SN_L_0196,,0,,,,,,,,,,,,,,,
SN_L_0197,,0,,,,,,,,,,,,,,,
SN_L_0198,,0,,,,,,,,,,,,,,,
SN_L_0199,,0,,,,,,,,,,,,,,,
SN_L_0200,,0,,,,,,,,,,,,,,,
SN_L_0201,,0,,,,,,,,,,,,,,,
SN_L_0202,,0,,,,,,,,,,,,,,,
SN_L_0203,,0,,,,,,,,,,,,,,,
SN_L_0204,,0,,,,,,,,,,,,,,,
SN_L_0205,,0,,,,,,,,,,,,,,,
SN_L_0206,,0,,,,,,,,,,,,,,,
SN_L_0207,,0,,,,,,,,,,,,,,,
SN_L_0208,,0,,,,,,,,,,,,,,,
SN_L_0209,,0,,,,,,,,,,,,,,,
SN_L_0210,,0,,,,,,,,,,,,,,,
SN_L_0211,,0,,,,,,,,,,,,,,,
SN_L_0212,,0,,,,,,,,,,,,,,,
SN_L_0213,,0,,,,,,,,,,,,,,,
SN_L_0214,,0,,,,,,,,,,,,,,,
SN_L_0215,,0,,,,,,,,,,,,,,,
SN_L_0216,,0,,,,,,,,,,,,,,,
SN_L_0217,,0,,,,,,,,,,,,,,,
SN_L_0218,,0,,,,,,,,,,,,,,,
SN_L_0219,,0,,,,,,,,,,,,,,,
SN_L_0220,,0,,,,,,,,,,,,,,,
SN_L_0221,,0,,,,,,,,,,,,,,,
SN_L_0222,,0,,,,,,,,,,,,,,,
SN_L_0223,,0,,,,,,,,,,,,,,,
SN_L_0224,,0,,,,,,,,,,,,,,,
SN_L_0225,,0,,,,,,,,,,,,,,,
SN_L_0226,,0,,,,,,,,,,,,,,,
SN_L_0227,,0,,,,,,,,,,,,,,,
SN_L_0228,,0,,,,,,,,,,,,,,,
SN_L_0229,,0,,,,,,,,,,,,,,,
SN_L_0230,,0,,,,,,,,,,,,,,,
SN_L_0231,,0,,,,,,,,,,,,,,,
SN_L_0232,,0,,,,,,,,,,,,,,,
SN_L_0233,,0,,,,,,,,,,,,,,,
SN_L_0234,,0,,,,,,,,,,,,,,,
SN_L_0235,,0,,,,,,,,,,,,,,,
SN_L_0236,,0,,,,,,,,,,,,,,,
SN_L_0237,,0,,,,,,,,,,,,,,,
SN_L_0238,,0,,,,,,,,,,,,,,,
SN_L_0239,,0,,,,,,,,,,,,,,,
SN_L_0240,,0,,,,,,,,,,,,,,,
SN_L_0241,,0,,,,,,,,,,,,,,,
SN_L_0242,,0,,,,,,,,,,,,,,,
SN_L_0243,,0,,,,,,,,,,,,,,,
SN_L_0244,,0,,,,,,,,,,,,,,,
SN_L_0245,,0,,,,,,,,,,,,,,,
SN_L_0246,,0,,,,,,,,,,,,,,,
SN_L_0247,,0,,,,,,,,,,,,,,,
SN_L_0248,,0,,,,,,,,,,,,,,,
SN_L_0249,,0,,,,,,,,,,,,,,,
SN_L_0250,,0,,,,,,,,,,,,,,,
SN_L_0251,,0,,,,,,,,,,,,,,,
SN_L_0252,,0,,,,,,,,,,,,,,,
SN_L_0253,,0,,,,,,,,,,,,,,,
SN_L_0254,,0,,,,,,,,,,,,,,,
SN_L_0255,,0,,,,,,,,,,,,,,,
SN_L_0256,,0,,,,,,,,,,,,,,,
SN_L_0257,,0,,,,,,,,,,,,,,,
SN_L_0258,,0,,,,,,,,,,,,,,,
SN_L_0259,,0,,,,,,,,,,,,,,,
SN_L_0260,,0,,,,,,,,,,,,,,,
SN_L_0261,,0,,,,,,,,,,,,,,,
SN_L_0262,,0,,,,,,,,,,,,,,,
SN_L_0263,,0,,,,,,,,,,,,,,,
SN_L_0264,,0,,,,,,,,,,,,,,,
SN_L_0265,,0,,,,,,,,,,,,,,,
SN_L_0266,,0,,,,,,,,,,,,,,,
SN_L_0267,,0,,,,,,,,,,,,,,,
SN_L_0268,,0,,,,,,,,,,,,,,,
SN_L_0269,,0,,,,,,,,,,,,,,,
SN_L_0270,,0,,,,,,,,,,,,,,,
SN_L_0271,,0,,,,,,,,,,,,,,,
SN_L_0272,,0,,,,,,,,,,,,,,,
SN_L_0273,,0,,,,,,,,,,,,,,,
SN_L_0274,,0,,,,,,,,,,,,,,,
SN_L_0275,,0,,,,,,,,,,,,,,,
SN_L_0276,,0,,,,,,,,,,,,,,,
SN_L_0277,,0,,,,,,,,,,,,,,,
SN_L_0278,,0,,,,,,,,,,,,,,,
SN_L_0279,,0,,,,,,,,,,,,,,,
SN_L_0280,,0,,,,,,,,,,,,,,,
SN_L_0281,,0,,,,,,,,,,,,,,,
SN_L_0282,,0,,,,,,,,,,,,,,,
SN_L_0283,,0,,,,,,,,,,,,,,,
SN_L_0284,,0,,,,,,,,,,,,,,,
SN_L_0285,,0,,,,,,,,,,,,,,,
SN_L_0286,,0,,,,,,,,,,,,,,,
SN_L_0287,,0,,,,,,,,,,,,,,,
SN_L_0288,,0,,,,,,,,,,,,,,,
SN_L_0289,,0,,,,,,,,,,,,,,,
SN_L_0290,,0,,,,,,,,,,,,,,,
SN_L_0291,,0,,,,,,,,,,,,,,,
SN_L_0292,,0,,,,,,,,,,,,,,,
SN_L_0293,,0,,,,,,,,,,,,,,,
SN_L_0294,,0,,,,,,,,,,,,,,,
SN_L_0295,,0,,,,,,,,,,,,,,,
SN_L_0296,,0,,,,,,,,,,,,,,,
SN_L_0297,,0,,,,,,,,,,,,,,,
SN_L_0298,,0,,,,,,,,,,,,,,,
SN_L_0299,,0,,,,,,,,,,,,,,,
SN_L_0300,,0,,,,,,,,,,,,,,,
SN_L_0301,,0,,,,,,,,,,,,,,,
SN_L_0302,,0,,,,,,,,,,,,,,,
SN_L_0303,,0,,,,,,,,,,,,,,,
SN_L_0304,,0,,,,,,,,,,,,,,,
SN_L_0305,,0,,,,,,,,,,,,,,,
SN_L_0306,,0,,,,,,,,,,,,,,,
SN_L_0307,,0,,,,,,,,,,,,,,,
SN_L_0308,,0,,,,,,,,,,,,,,,
SN_L_0309,,0,,,,,,,,,,,,,,,
SN_L_0310,,0,,,,,,,,,,,,,,,
SN_L_0311,,0,,,,,,,,,,,,,,,
SN_L_0312,,0,,,,,,,,,,,,,,,
SN_L_0313,,0,,,,,,,,,,,,,,,
SN_L_0314,,0,,,,,,,,,,,,,,,
SN_L_0315,,0,,,,,,,,,,,,,,,
SN_L_0316,,0,,,,,,,,,,,,,,,
SN_L_0317,,0,,,,,,,,,,,,,,,
SN_L_0318,,0,,,,,,,,,,,,,,,
SN_L_0319,,0,,,,,,,,,,,,,,,
SN_L_0320,,0,,,,,,,,,,,,,,,
SN_L_0321,,0,,,,,,,,,,,,,,,
SN_L_0322,,0,,,,,,,,,,,,,,,
SN_L_0323,,0,,,,,,,,,,,,,,,
SN_L_0324,,0,,,,,,,,,,,,,,,
SN_L_0325,,0,,,,,,,,,,,,,,,
SN_L_0326,,0,,,,,,,,,,,,,,,
SN_L_0327,,0,,,,,,,,,,,,,,,
SN_L_0328,,0,,,,,,,,,,,,,,,
SN_L_0329,,0,,,,,,,,,,,,,,,
SN_L_0330,,0,,,,,,,,,,,,,,,
SN_L_0331,,0,,,,,,,,,,,,,,,
SN_L_0332,,0,,,,,,,,,,,,,,,
SN_L_0333,,0,,,,,,,,,,,,,,,
SN_L_0334,,0,,,,,,,,,,,,,,,
SN_L_0335,,0,,,,,,,,,,,,,,,
SN_L_0336,,0,,,,,,,,,,,,,,,
SN_L_0337,,0,,,,,,,,,,,,,,,
SN_L_0338,,0,,,,,,,,,,,,,,,
SN_L_0339,,0,,,,,,,,,,,,,,,
SN_L_0340,,0,,,,,,,,,,,,,,,
SN_L_0341,,0,,,,,,,,,,,,,,,
SN_L_0342,,0,,,,,,,,,,,,,,,
SN_L_0343,,0,,,,,,,,,,,,,,,
SN_L_0344,,0,,,,,,,,,,,,,,,
SN_L_0345,,0,,,,,,,,,,,,,,,
SN_L_0346,,0,,,,,,,,,,,,,,,
SN_L_0347,,0,,,,,,,,,,,,,,,
SN_L_0348,,0,,,,,,,,,,,,,,,
SN_L_0349,,0,,,,,,,,,,,,,,,
SN_L_0350,,0,,,,,,,,,,,,,,,
SN_L_0351,,0,,,,,,,,,,,,,,,
SN_L_0352,,0,,,,,,,,,,,,,,,
SN_L_0353,,0,,,,,,,,,,,,,,,
SN_L_0354,,0,,,,,,,,,,,,,,,
SN_L_0355,,0,,,,,,,,,,,,,,,
SN_L_0356,,0,,,,,,,,,,,,,,,
SN_L_0357,,0,,,,,,,,,,,,,,,
SN_L_0358,,0,,,,,,,,,,,,,,,
SN_L_0359,,0,,,,,,,,,,,,,,,
SN_L_0360,,0,,,,,,,,,,,,,,,
SN_L_0361,,0,,,,,,,,,,,,,,,
SN_L_0362,,0,,,,,,,,,,,,,,,
SN_L_0363,,0,,,,,,,,,,,,,,,
SN_L_0364,,0,,,,,,,,,,,,,,,
SN_L_0365,,0,,,,,,,,,,,,,,,
SN_L_0366,,0,,,,,,,,,,,,,,,
SN_L_0367,,0,,,,,,,,,,,,,,,
SN_L_0368,,0,,,,,,,,,,,,,,,
SN_L_0369,,0,,,,,,,,,,,,,,,
SN_L_0370,,0,,,,,,,,,,,,,,,
SN_L_0371,,0,,,,,,,,,,,,,,,
SN_L_0372,,0,,,,,,,,,,,,,,,
SN_L_0373,,0,,,,,,,,,,,,,,,
SN_L_0374,,0,,,,,,,,,,,,,,,
SN_L_0375,,0,,,,,,,,,,,,,,,
SN_L_0376,,0,,,,,,,,,,,,,,,
SN_L_0377,,0,,,,,,,,,,,,,,,
SN_L_0378,,0,,,,,,,,,,,,,,,
SN_L_0379,,0,,,,,,,,,,,,,,,
SN_L_0380,,0,,,,,,,,,,,,,,,
SN_L_0381,,0,,,,,,,,,,,,,,,
SN_L_0382,,0,,,,,,,,,,,,,,,
SN_L_0383,,0,,,,,,,,,,,,,,,
SN_L_0384,,0,,,,,,,,,,,,,,,
SN_L_0385,,0,,,,,,,,,,,,,,,
SN_L_0386,,0,,,,,,,,,,,,,,,
SN_L_0387,,0,,,,,,,,,,,,,,,
SN_L_0388,,0,,,,,,,,,,,,,,,
SN_L_0389,,0,,,,,,,,,,,,,,,
SN_L_0390,,0,,,,,,,,,,,,,,,
SN_L_0391,,0,,,,,,,,,,,,,,,
SN_L_0392,,0,,,,,,,,,,,,,,,
SN_L_0393,,0,,,,,,,,,,,,,,,
SN_L_0394,,0,,,,,,,,,,,,,,,
SN_L_0395,,0,,,,,,,,,,,,,,,
SN_L_0396,,0,,,,,,,,,,,,,,,
SN_L_0397,,0,,,,,,,,,,,,,,,
SN_L_0398,,0,,,,,,,,,,,,,,,
SN_L_0399,,0,,,,,,,,,,,,,,,
SN_L_0400,,0,,,,,,,,,,,,,,,
SN_L_0401,,0,,,,,,,,,,,,,,,
SN_L_0402,,0,,,,,,,,,,,,,,,
SN_L_0403,,0,,,,,,,,,,,,,,,
SN_L_0404,,0,,,,,,,,,,,,,,,
SN_L_0405,,0,,,,,,,,,,,,,,,
SN_L_0406,,0,,,,,,,,,,,,,,,
SN_L_0407,,0,,,,,,,,,,,,,,,
SN_L_0408,,0,,,,,,,,,,,,,,,
SN_L_0409,,0,,,,,,,,,,,,,,,
SN_L_0410,,0,,,,,,,,,,,,,,,
SN_L_0411,,0,,,,,,,,,,,,,,,
SN_L_0412,,0,,,,,,,,,,,,,,,
SN_L_0413,,0,,,,,,,,,,,,,,,
SN_L_0414,,0,,,,,,,,,,,,,,,
SN_L_0415,,0,,,,,,,,,,,,,,,
SN_L_0416,,0,,,,,,,,,,,,,,,
SN_L_0417,,0,,,,,,,,,,,,,,,
SN_L_0418,,0,,,,,,,,,,,,,,,
SN_L_0419,,0,,,,,,,,,,,,,,,
SN_L_0420,,0,,,,,,,,,,,,,,,
SN_L_0421,,0,,,,,,,,,,,,,,,
SN_L_0422,,0,,,,,,,,,,,,,,,
SN_L_0423,,0,,,,,,,,,,,,,,,
SN_L_0424,,0,,,,,,,,,,,,,,,
SN_L_0425,,0,,,,,,,,,,,,,,,
SN_L_0426,,0,,,,,,,,,,,,,,,
SN_L_0427,,0,,,,,,,,,,,,,,,
SN_L_0428,,0,,,,,,,,,,,,,,,
SN_L_0429,,0,,,,,,,,,,,,,,,
SN_L_0430,,0,,,,,,,,,,,,,,,
SN_L_0431,,0,,,,,,,,,,,,,,,
SN_L_0432,,0,,,,,,,,,,,,,,,
SN_L_0433,,0,,,,,,,,,,,,,,,
SN_L_0434,,0,,,,,,,,,,,,,,,
SN_L_0435,,0,,,,,,,,,,,,,,,
SN_L_0436,,0,,,,,,,,,,,,,,,
SN_L_0437,,0,,,,,,,,,,,,,,,
SN_L_0438,,0,,,,,,,,,,,,,,,
SN_L_0439,,0,,,,,,,,,,,,,,,
SN_L_0440,,0,,,,,,,,,,,,,,,
SN_L_0441,,0,,,,,,,,,,,,,,,
SN_L_0442,,0,,,,,,,,,,,,,,,
SN_L_0443,,0,,,,,,,,,,,,,,,
SN_L_0444,,0,,,,,,,,,,,,,,,
SN_L_0445,,0,,,,,,,,,,,,,,,
SN_L_0446,,0,,,,,,,,,,,,,,,
SN_L_0447,,0,,,,,,,,,,,,,,,
SN_L_0448,,0,,,,,,,,,,,,,,,
SN_L_0449,,0,,,,,,,,,,,,,,,
SN_L_0450,,0,,,,,,,,,,,,,,,
SN_L_0451,,0,,,,,,,,,,,,,,,
SN_L_0452,,0,,,,,,,,,,,,,,,
SN_L_0453,,0,,,,,,,,,,,,,,,
SN_L_0454,,0,,,,,,,,,,,,,,,
SN_L_0455,,0,,,,,,,,,,,,,,,
SN_L_0456,,0,,,,,,,,,,,,,,,
SN_L_0457,,0,,,,,,,,,,,,,,,
SN_L_0458,,0,,,,,,,,,,,,,,,
SN_L_0459,,0,,,,,,,,,,,,,,,
SN_L_0460,,0,,,,,,,,,,,,,,,
SN_L_0461,,0,,,,,,,,,,,,,,,
SN_L_0462,,0,,,,,,,,,,,,,,,
SN_L_0463,,0,,,,,,,,,,,,,,,
SN_L_0464,,0,,,,,,,,,,,,,,,
SN_L_0465,,0,,,,,,,,,,,,,,,
SN_L_0466,,0,,,,,,,,,,,,,,,
SN_L_0467,,0,,,,,,,,,,,,,,,
SN_L_0468,,0,,,,,,,,,,,,,,,
SN_L_0469,,0,,,,,,,,,,,,,,,
SN_L_0470,,0,,,,,,,,,,,,,,,
SN_L_0471,,0,,,,,,,,,,,,,,,
SN_L_0472,,0,,,,,,,,,,,,,,,
SN_L_0473,,0,,,,,,,,,,,,,,,
SN_L_0474,,0,,,,,,,,,,,,,,,
SN_L_0475,,0,,,,,,,,,,,,,,,
SN_L_0476,,0,,,,,,,,,,,,,,,
SN_L_0477,,0,,,,,,,,,,,,,,,
SN_L_0478,,0,,,,,,,,,,,,,,,
SN_L_0479,,0,,,,,,,,,,,,,,,
SN_L_0480,,0,,,,,,,,,,,,,,,
SN_L_0481,,0,,,,,,,,,,,,,,,
SN_L_0482,,0,,,,,,,,,,,,,,,
SN_L_0483,,0,,,,,,,,,,,,,,,
SN_L_0484,,0,,,,,,,,,,,,,,,
SN_L_0485,,0,,,,,,,,,,,,,,,
SN_L_0486,,0,,,,,,,,,,,,,,,
SN_L_0487,,0,,,,,,,,,,,,,,,
SN_L_0488,,0,,,,,,,,,,,,,,,
SN_L_0489,,0,,,,,,,,,,,,,,,
SN_L_0490,,0,,,,,,,,,,,,,,,
SN_L_0491,,0,,,,,,,,,,,,,,,
SN_L_0492,,0,,,,,,,,,,,,,,,
SN_L_0493,,0,,,,,,,,,,,,,,,
SN_L_0494,,0,,,,,,,,,,,,,,,
SN_L_0495,,0,,,,,,,,,,,,,,,
SN_L_0496,,0,,,,,,,,,,,,,,,
SN_L_0497,,0,,,,,,,,,,,,,,,
SN_L_0498,,0,,,,,,,,,,,,,,,
SN_L_0499,,0,,,,,,,,,,,,,,,
